*******************************************************************************
Ephemeris / WWW_USER Mon Mar 24 07:34:22 2025 Pasadena, USA      / Horizons    
*******************************************************************************
Target body name: (2018 RG5)                      {source: JPL#6}
Center body name: Earth (399)                     {source: DE441}
Center-site name: Mauna Kea
*******************************************************************************
Start time      : A.D. 2018-Dec-06 03:52:00.0000 UT      
Stop  time      : A.D. 2018-Dec-06 16:33:00.0000 UT      
Step-size       : 1 minutes
*******************************************************************************
Target pole/equ : undefined
Target radii    : undefined                                                    
Center geodetic : 204.5278, 19.8260847, 4.21024   {E-lon(deg),Lat(deg),Alt(km)}
Center cylindric: 204.5278, 6006.35451, 2151.0229 {E-lon(deg),Dxy(km),Dz(km)}
Center pole/equ : ITRF93                          {East-longitude positive}
Center radii    : 6378.137, 6378.137, 6356.752 km {Equator_a, b, pole_c}       
Target primary  : Sun
Vis. interferer : MOON (R_eq= 1737.400) km        {source: DE441}
Rel. light bend : Sun                             {source: DE441}
Rel. lght bnd GM: 1.3271E+11 km^3/s^2                                          
Small-body perts: Yes                             {source: SB441-N16}
Atmos refraction: NO (AIRLESS)
RA format       : HMS
Time format     : CAL 
Calendar mode   : Mixed Julian/Gregorian
RTS-only print  : NO       
EOP file        : eop.250321.p250617                                           
EOP coverage    : DATA-BASED 1962-JAN-20 TO 2025-MAR-21. PREDICTS-> 2025-JUN-16
Units conversion: 1 au= 149597870.700 km, c= 299792.458 km/s, 1 day= 86400.0 s 
Table cut-offs 1: Elevation (-90.0deg=NO ),Airmass (>38.000=NO), Daylight (YES)
Table cut-offs 2: Solar elongation (  0.0,180.0=NO ),Local Hour Angle( 0.0=NO )
Table cut-offs 3: RA/DEC angular rate (     0.0=NO )                           
*******************************************************************************
Initial IAU76/J2000 heliocentric ecliptic osculating elements (au, days, deg.):
  EPOCH=  2458374.5 ! 2018-Sep-13.00 (TDB)         Residual RMS= .44286        
   EC= .3970272763955992   QR= .9476094655819058   TP= 2458410.7007282218      
   OM= 172.9777515025259   W=  220.286388004559    IN= 6.065188755768435       
  Equivalent ICRF heliocentric cartesian coordinates (au, au/d):
   X= 1.011373795361920E+00  Y=-1.657289676662098E-01  Z=-6.569093016663846E-02
  VX=-6.707749535245534E-04 VY= 1.878070382659777E-02 VZ= 5.901532854039199E-03
Asteroid physical parameters (km, seconds, rotational period in hours):        
   GM= n.a.                RAD= n.a.               ROTPER= n.a.                
   H= 26.76                G= .150                 B-V= n.a.                   
                           ALBEDO= n.a.            STYP= n.a.                  
*******************************************************************************
 Date__(UT)__HR:MN     R.A._________(ICRF)_________DEC
******************************************************
$$SOE
 2018-Dec-06 14:07     09 51 14.253646 -10 13 07.75738
 2018-Dec-06 14:08     09 51 14.254487 -10 13 07.67705
 2018-Dec-06 14:09     09 51 14.255317 -10 13 07.59663
 2018-Dec-06 14:10     09 51 14.256136 -10 13 07.51611
 2018-Dec-06 14:11     09 51 14.256944 -10 13 07.43550
 2018-Dec-06 14:12     09 51 14.257741 -10 13 07.35478
 2018-Dec-06 14:13     09 51 14.258528 -10 13 07.27396
 2018-Dec-06 14:14     09 51 14.259303 -10 13 07.19305
 2018-Dec-06 14:15     09 51 14.260069 -10 13 07.11203
 2018-Dec-06 14:16     09 51 14.260824 -10 13 07.03091
 2018-Dec-06 14:17     09 51 14.261568 -10 13 06.94970
 2018-Dec-06 14:18     09 51 14.262303 -10 13 06.86838
 2018-Dec-06 14:19     09 51 14.263028 -10 13 06.78697
 2018-Dec-06 14:20     09 51 14.263744 -10 13 06.70545
 2018-Dec-06 14:21     09 51 14.264450 -10 13 06.62383
 2018-Dec-06 14:22     09 51 14.265146 -10 13 06.54212
 2018-Dec-06 14:23     09 51 14.265833 -10 13 06.46030
 2018-Dec-06 14:24     09 51 14.266511 -10 13 06.37838
 2018-Dec-06 14:25     09 51 14.267180 -10 13 06.29637
 2018-Dec-06 14:26     09 51 14.267841 -10 13 06.21425
 2018-Dec-06 14:27     09 51 14.268493 -10 13 06.13203
 2018-Dec-06 14:28     09 51 14.269136 -10 13 06.04971
 2018-Dec-06 14:29     09 51 14.269771 -10 13 05.96729
 2018-Dec-06 14:30     09 51 14.270398 -10 13 05.88477
 2018-Dec-06 14:31     09 51 14.271016 -10 13 05.80214
 2018-Dec-06 14:32     09 51 14.271627 -10 13 05.71942
 2018-Dec-06 14:33     09 51 14.272231 -10 13 05.63659
 2018-Dec-06 14:34     09 51 14.272826 -10 13 05.55367
 2018-Dec-06 14:35     09 51 14.273414 -10 13 05.47064
 2018-Dec-06 14:36     09 51 14.273995 -10 13 05.38751
 2018-Dec-06 14:37     09 51 14.274569 -10 13 05.30428
 2018-Dec-06 14:38     09 51 14.275136 -10 13 05.22095
 2018-Dec-06 14:39     09 51 14.275696 -10 13 05.13751
 2018-Dec-06 14:40     09 51 14.276249 -10 13 05.05398
 2018-Dec-06 14:41     09 51 14.276796 -10 13 04.97034
 2018-Dec-06 14:42     09 51 14.277337 -10 13 04.88660
 2018-Dec-06 14:43     09 51 14.277871 -10 13 04.80276
 2018-Dec-06 14:44     09 51 14.278399 -10 13 04.71881
 2018-Dec-06 14:45     09 51 14.278922 -10 13 04.63477
 2018-Dec-06 14:46     09 51 14.279439 -10 13 04.55062
 2018-Dec-06 14:47     09 51 14.279950 -10 13 04.46637
 2018-Dec-06 14:48     09 51 14.280455 -10 13 04.38202
 2018-Dec-06 14:49     09 51 14.280956 -10 13 04.29757
 2018-Dec-06 14:50     09 51 14.281451 -10 13 04.21301
 2018-Dec-06 14:51     09 51 14.281941 -10 13 04.12835
 2018-Dec-06 14:52     09 51 14.282427 -10 13 04.04359
 2018-Dec-06 14:53     09 51 14.282908 -10 13 03.95873
 2018-Dec-06 14:54     09 51 14.283384 -10 13 03.87377
 2018-Dec-06 14:55     09 51 14.283856 -10 13 03.78870
 2018-Dec-06 14:56     09 51 14.284324 -10 13 03.70353
 2018-Dec-06 14:57     09 51 14.284787 -10 13 03.61826
 2018-Dec-06 14:58     09 51 14.285247 -10 13 03.53288
 2018-Dec-06 14:59     09 51 14.285703 -10 13 03.44740
 2018-Dec-06 15:00     09 51 14.286156 -10 13 03.36182
 2018-Dec-06 15:01     09 51 14.286605 -10 13 03.27614
 2018-Dec-06 15:02     09 51 14.287051 -10 13 03.19036
 2018-Dec-06 15:03     09 51 14.287494 -10 13 03.10447
 2018-Dec-06 15:04     09 51 14.287933 -10 13 03.01848
 2018-Dec-06 15:05     09 51 14.288370 -10 13 02.93239
 2018-Dec-06 15:06     09 51 14.288804 -10 13 02.84619
 2018-Dec-06 15:07     09 51 14.289236 -10 13 02.75989
 2018-Dec-06 15:08     09 51 14.289666 -10 13 02.67349
 2018-Dec-06 15:09     09 51 14.290093 -10 13 02.58699
 2018-Dec-06 15:10     09 51 14.290518 -10 13 02.50038
 2018-Dec-06 15:11     09 51 14.290941 -10 13 02.41367
 2018-Dec-06 15:12     09 51 14.291363 -10 13 02.32686
 2018-Dec-06 15:13  t  09 51 14.291783 -10 13 02.23995
 2018-Dec-06 15:14     09 51 14.292202 -10 13 02.15293
 2018-Dec-06 15:15     09 51 14.292619 -10 13 02.06581
 2018-Dec-06 15:16     09 51 14.293035 -10 13 01.97859
 2018-Dec-06 15:17     09 51 14.293450 -10 13 01.89126
 2018-Dec-06 15:18     09 51 14.293865 -10 13 01.80383
 2018-Dec-06 15:19     09 51 14.294278 -10 13 01.71630
 2018-Dec-06 15:20     09 51 14.294692 -10 13 01.62867
 2018-Dec-06 15:21     09 51 14.295105 -10 13 01.54093
 2018-Dec-06 15:22     09 51 14.295517 -10 13 01.45309
 2018-Dec-06 15:23     09 51 14.295930 -10 13 01.36515
 2018-Dec-06 15:24     09 51 14.296343 -10 13 01.27711
 2018-Dec-06 15:25     09 51 14.296756 -10 13 01.18896
 2018-Dec-06 15:26 A   09 51 14.297170 -10 13 01.10071
 2018-Dec-06 15:27 A   09 51 14.297584 -10 13 01.01236
 2018-Dec-06 15:28 A   09 51 14.297999 -10 13 00.92390
 2018-Dec-06 15:29 A   09 51 14.298414 -10 13 00.83535
 2018-Dec-06 15:30 A   09 51 14.298831 -10 13 00.74669
 2018-Dec-06 15:31 A   09 51 14.299249 -10 13 00.65793
 2018-Dec-06 15:32 A   09 51 14.299669 -10 13 00.56906
 2018-Dec-06 15:33 A   09 51 14.300089 -10 13 00.48009
 2018-Dec-06 15:34 A   09 51 14.300512 -10 13 00.39102
 2018-Dec-06 15:35 A   09 51 14.300936 -10 13 00.30185
 2018-Dec-06 15:36 A   09 51 14.301363 -10 13 00.21258
 2018-Dec-06 15:37 A   09 51 14.301791 -10 13 00.12320
 2018-Dec-06 15:38 A   09 51 14.302222 -10 13 00.03372
 2018-Dec-06 15:39 A   09 51 14.302655 -10 12 59.94414
 2018-Dec-06 15:40 A   09 51 14.303091 -10 12 59.85446
 2018-Dec-06 15:41 A   09 51 14.303529 -10 12 59.76468
 2018-Dec-06 15:42 A   09 51 14.303970 -10 12 59.67479
 2018-Dec-06 15:43 A   09 51 14.304415 -10 12 59.58480
 2018-Dec-06 15:44 A   09 51 14.304862 -10 12 59.49471
 2018-Dec-06 15:45 A   09 51 14.305313 -10 12 59.40452
 2018-Dec-06 15:46 A   09 51 14.305768 -10 12 59.31422
 2018-Dec-06 15:47 A   09 51 14.306226 -10 12 59.22383
 2018-Dec-06 15:48 A   09 51 14.306688 -10 12 59.13333
 2018-Dec-06 15:49 A   09 51 14.307154 -10 12 59.04273
 2018-Dec-06 15:50 A   09 51 14.307624 -10 12 58.95203
 2018-Dec-06 15:51 A   09 51 14.308098 -10 12 58.86122
 2018-Dec-06 15:52 A   09 51 14.308576 -10 12 58.77032
 2018-Dec-06 15:53 N   09 51 14.309060 -10 12 58.67932
 2018-Dec-06 15:54 N   09 51 14.309548 -10 12 58.58821
 2018-Dec-06 15:55 N   09 51 14.310040 -10 12 58.49700
 2018-Dec-06 15:56 N   09 51 14.310538 -10 12 58.40569
 2018-Dec-06 15:57 N   09 51 14.311041 -10 12 58.31428
 2018-Dec-06 15:58 N   09 51 14.311550 -10 12 58.22277
 2018-Dec-06 15:59 N   09 51 14.312063 -10 12 58.13116
 2018-Dec-06 16:00 N   09 51 14.312583 -10 12 58.03944
 2018-Dec-06 16:01 N   09 51 14.313108 -10 12 57.94763
 2018-Dec-06 16:02 Nm  09 51 14.313639 -10 12 57.85572
 2018-Dec-06 16:03 Nm  09 51 14.314176 -10 12 57.76370
 2018-Dec-06 16:04 Nm  09 51 14.314720 -10 12 57.67158
 2018-Dec-06 16:05 Nm  09 51 14.315270 -10 12 57.57937
 2018-Dec-06 16:06 Nm  09 51 14.315826 -10 12 57.48705
 2018-Dec-06 16:07 Nm  09 51 14.316389 -10 12 57.39464
 2018-Dec-06 16:08 Nm  09 51 14.316959 -10 12 57.30212
 2018-Dec-06 16:09 Nm  09 51 14.317536 -10 12 57.20950
